{"type": "FeatureCollection", "features": [ {"type": "Feature", "properties": {"norad_id": 41836, "name": "HIMAWARI-9", "group": "weather", "lat": 0.027672548102222475, "lon": 17.22843306636463, "alt_km": 35783.982463309716, "timestamp": "2025-12-04T10:51:49.749469+00:00", "meta": {"OBJECT_NAME": "HIMAWARI-9", "OBJECT_ID": "2016-064A", "EPOCH": "2025-12-03T18:51:33.971904", "MEAN_MOTION": 1.00270864, "ECCENTRICITY": 0.00023308, "INCLINATION": 0.0194, "RA_OF_ASC_NODE": 347.0429, "ARG_OF_PERICENTER": 314.766, "MEAN_ANOMALY": 194.6947, "EPHEMERIS_TYPE": 0, "CLASSIFICATION_TYPE": "U", "NORAD_CAT_ID": 41836, "ELEMENT_SET_NO": 999, "REV_AT_EPOCH": 3325, "BSTAR": 0, "MEAN_MOTION_DOT": 0, "MEAN_MOTION_DDOT": 0}, "tle": {"line1": "1 41836U 16064A   25337.78580986  .00000000  00000+0  00000+0 0  9998", "line2": "2 41836   0.0194 347.0429 0002330 314.7660 194.6947  1.00270864 33253"}}, "geometry": {"type": "Point", "coordinates": [17.22843306636463, 0.027672548102222475]}}, {"type": "Feature", "properties": {"norad_id": 41866, "name": "GOES 16", "group": "weather", "lat": 0.03715473310323211, "lon": 131.7562434970458, "alt_km": 35794.89865899427, "timestamp": "2025-12-04T10:51:49.749482+00:00", "meta": {"OBJECT_NAME": "GOES 16", "OBJECT_ID": "2016-071A", "EPOCH": "2025-12-04T01:14:34.598976", "MEAN_MOTION": 1.00270627, "ECCENTRICITY": 0.0003448, "INCLINATION": 0.061, "RA_OF_ASC_NODE": 105.5074, "ARG_OF_PERICENTER": 151.8567, "MEAN_ANOMALY": 89.7393, "EPHEMERIS_TYPE": 0, "CLASSIFICATION_TYPE": "U", "NORAD_CAT_ID": 41866, "ELEMENT_SET_NO": 999, "REV_AT_EPOCH": 3314, "BSTAR": 0, "MEAN_MOTION_DOT": -7.4e-07, "MEAN_MOTION_DDOT": 0}, "tle": {"line1": "1 41866U 16071A   25338.05178934 -.00000074  00000+0  00000+0 0  9998", "line2": "2 41866   0.0610 105.5074 0003448 151.8567  89.7393  1.00270627 33143"}}, "geometry": {"type": "Point", "coordinates": [131.7562434970458, 0.03715473310323211]}}, {"type": "Feature", "properties": {"norad_id": 41882, "name": "FENGYUN 4A", "group": "weather", "lat": -1.7944757477389321, "lon": 0.2612412040071226, "alt_km": 35799.89706213578, "timestamp": "2025-12-04T10:51:49.749494+00:00", "meta": {"OBJECT_NAME": "FENGYUN 4A", "OBJECT_ID": "2016-077A", "EPOCH": "2025-12-03T17:33:02.668032", "MEAN_MOTION": 1.00278005, "ECCENTRICITY": 0.00050458, "INCLINATION": 1.8246, "RA_OF_ASC_NODE": 82.4798, "ARG_OF_PERICENTER": 142.0307, "MEAN_ANOMALY": 235.3013, "EPHEMERIS_TYPE": 0, "CLASSIFICATION_TYPE": "U", "NORAD_CAT_ID": 41882, "ELEMENT_SET_NO": 999, "REV_AT_EPOCH": 3297, "BSTAR": 0, "MEAN_MOTION_DOT": -3.4e-06, "MEAN_MOTION_DDOT": 0}, "tle": {"line1": "1 41882U 16077A   25337.73128088 -.00000340  00000+0  00000+0 0  9997", "line2": "2 41882   1.8246  82.4798 0005045 142.0307 235.3013  1.00278005 32976"}}, "geometry": {"type": "Point", "coordinates": [0.2612412040071226, -1.7944757477389321]}}, {"type": "Feature", "properties": {"norad_id": 41884, "name": "CYGFM05", "group": "weather", "lat": -11.350260168195687, "lon": -62.05780194887871, "alt_km": 425.96629844174913, "timestamp": "2025-12-04T10:51:49.749506+00:00", "meta": {"OBJECT_NAME": "CYGFM05", "OBJECT_ID": "2016-078A", "EPOCH": "2025-12-03T18:31:05.680992", "MEAN_MOTION": 15.47125161, "ECCENTRICITY": 0.0009412, "INCLINATION": 34.9582, "RA_OF_ASC_NODE": 105.6898, "ARG_OF_PERICENTER": 97.1465, "MEAN_ANOMALY": 263.0327, "EPHEMERIS_TYPE": 0, "CLASSIFICATION_TYPE": "U", "NORAD_CAT_ID": 41884, "ELEMENT_SET_NO": 999, "REV_AT_EPOCH": 49837, "BSTAR": 0.00060726, "MEAN_MOTION_DOT": 0.00031867, "MEAN_MOTION_DDOT": 0}, "tle": {"line1": "1 41884U 16078A   25337.77159353  .00031867  00000+0  60726-3 0  9995", "line2": "2 41884  34.9582 105.6898 0009412  97.1465 263.0327 15.47125161498370"}}, "geometry": {"type": "Point", "coordinates": [-62.05780194887871, -11.350260168195687]}}, {"type": "Feature", "properties": {"norad_id": 41885, "name": "CYGFM04", "group": "weather", "lat": -0.8675071446540162, "lon": 75.01338102357944, "alt_km": 420.16980532687467, "timestamp": "2025-12-04T10:51:49.749517+00:00", "meta": {"OBJECT_NAME": "CYGFM04", "OBJECT_ID": "2016-078B", "EPOCH": "2025-12-03T16:19:08.760000", "MEAN_MOTION": 15.49783379, "ECCENTRICITY": 0.0008489, "INCLINATION": 34.9344, "RA_OF_ASC_NODE": 81.322, "ARG_OF_PERICENTER": 126.9571, "MEAN_ANOMALY": 233.1929, "EPHEMERIS_TYPE": 0, "CLASSIFICATION_TYPE": "U", "NORAD_CAT_ID": 41885, "ELEMENT_SET_NO": 999, "REV_AT_EPOCH": 49853, "BSTAR": 0.0011386, "MEAN_MOTION_DOT": 0.0006591, "MEAN_MOTION_DDOT": 0}, "tle": {"line1": "1 41885U 16078B   25337.67996250  .00065910  00000+0  11386-2 0  9993", "line2": "2 41885  34.9344  81.3220 0008489 126.9571 233.1929 15.49783379498535"}}, "geometry": {"type": "Point", "coordinates": [75.01338102357944, -0.8675071446540162]}}, {"type": "Feature", "properties": {"norad_id": 41886, "name": "CYGFM02", "group": "weather", "lat": -16.263522345966454, "lon": 49.99296302514181, "alt_km": 420.60338530112676, "timestamp": "2025-12-04T10:51:49.749528+00:00", "meta": {"OBJECT_NAME": "CYGFM02", "OBJECT_ID": "2016-078C", "EPOCH": "2025-12-03T16:27:15.350112", "MEAN_MOTION": 15.51121687, "ECCENTRICITY": 0.0010217, "INCLINATION": 34.9434, "RA_OF_ASC_NODE": 79.7274, "ARG_OF_PERICENTER": 125.87, "MEAN_ANOMALY": 234.2972, "EPHEMERIS_TYPE": 0, "CLASSIFICATION_TYPE": "U", "NORAD_CAT_ID": 41886, "ELEMENT_SET_NO": 999, "REV_AT_EPOCH": 49866, "BSTAR": 0.0006192, "MEAN_MOTION_DOT": 0.00037463, "MEAN_MOTION_DDOT": 0}, "tle": {"line1": "1 41886U 16078C   25337.68559433  .00037463  00000+0  61920-3 0  9995", "line2": "2 41886  34.9434  79.7274 0010217 125.8700 234.2972 15.51121687498665"}}, "geometry": {"type": "Point", "coordinates": [49.99296302514181, -16.263522345966454]}}, {"type": "Feature", "properties": {"norad_id": 41887, "name": "CYGFM01", "group": "weather", "lat": -24.777963716997736, "lon": -34.961323468332075, "alt_km": 428.9456782245916, "timestamp": "2025-12-04T10:51:49.749538+00:00", "meta": {"OBJECT_NAME": "CYGFM01", "OBJECT_ID": "2016-078D", "EPOCH": "2025-12-03T18:24:28.844928", "MEAN_MOTION": 15.4768667, "ECCENTRICITY": 0.00090329, "INCLINATION": 34.9412, "RA_OF_ASC_NODE": 108.1317, "ARG_OF_PERICENTER": 88.3823, "MEAN_ANOMALY": 271.7933, "EPHEMERIS_TYPE": 0, "CLASSIFICATION_TYPE": "U", "NORAD_CAT_ID": 41887, "ELEMENT_SET_NO": 999, "REV_AT_EPOCH": 49831, "BSTAR": 0.00054644493, "MEAN_MOTION_DOT": 0.00029225, "MEAN_MOTION_DDOT": 0}, "tle": {"line1": "1 41887U 16078D   25337.76700052  .00029225  00000+0  54644-3 0  9992", "line2": "2 41887  34.9412 108.1317 0009032  88.3823 271.7933 15.47686670498317"}}, "geometry": {"type": "Point", "coordinates": [-34.961323468332075, -24.777963716997736]}}, {"type": "Feature", "properties": {"norad_id": 41888, "name": "CYGFM08", "group": "weather", "lat": -29.647891424262607, "lon": -38.662926378127075, "alt_km": 425.12818399241223, "timestamp": "2025-12-04T10:51:49.749549+00:00", "meta": {"OBJECT_NAME": "CYGFM08", "OBJECT_ID": "2016-078E", "EPOCH": "2025-12-04T00:33:13.377600", "MEAN_MOTION": 15.48884344, "ECCENTRICITY": 0.0010702, "INCLINATION": 34.9454, "RA_OF_ASC_NODE": 89.5504, "ARG_OF_PERICENTER": 117.3678, "MEAN_ANOMALY": 242.8134, "EPHEMERIS_TYPE": 0, "CLASSIFICATION_TYPE": "U", "NORAD_CAT_ID": 41888, "ELEMENT_SET_NO": 999, "REV_AT_EPOCH": 49858, "BSTAR": 0.0006709, "MEAN_MOTION_DOT": 0.00037497, "MEAN_MOTION_DDOT": 0}, "tle": {"line1": "1 41888U 16078E   25338.02307150  .00037497  00000+0  67090-3 0  9994", "line2": "2 41888  34.9454  89.5504 0010702 117.3678 242.8134 15.48884344498581"}}, "geometry": {"type": "Point", "coordinates": [-38.662926378127075, -29.647891424262607]}}, {"type": "Feature", "properties": {"norad_id": 41890, "name": "CYGFM07", "group": "weather", "lat": -16.761349035805583, "lon": -78.6843608184926, "alt_km": 416.9955936657252, "timestamp": "2025-12-04T10:51:49.749561+00:00", "meta": {"OBJECT_NAME": "CYGFM07", "OBJECT_ID": "2016-078G", "EPOCH": "2025-12-03T16:57:09.459072", "MEAN_MOTION": 15.49434611, "ECCENTRICITY": 0.0008986, "INCLINATION": 34.9472, "RA_OF_ASC_NODE": 80.6555, "ARG_OF_PERICENTER": 132.3199, "MEAN_ANOMALY": 227.8285, "EPHEMERIS_TYPE": 0, "CLASSIFICATION_TYPE": "U", "NORAD_CAT_ID": 41890, "ELEMENT_SET_NO": 999, "REV_AT_EPOCH": 49855, "BSTAR": 0.00060608, "MEAN_MOTION_DOT": 0.00034498, "MEAN_MOTION_DDOT": 0}, "tle": {"line1": "1 41890U 16078G   25337.70635948  .00034498  00000+0  60608-3 0  9996", "line2": "2 41890  34.9472  80.6555 0008986 132.3199 227.8285 15.49434611498554"}}, "geometry": {"type": "Point", "coordinates": [-78.6843608184926, -16.761349035805583]}}, {"type": "Feature", "properties": {"norad_id": 41891, "name": "CYGFM03", "group": "weather", "lat": 25.010133551331798, "lon": 119.60406574191042, "alt_km": 412.5434170089693, "timestamp": "2025-12-04T10:51:49.749572+00:00", "meta": {"OBJECT_NAME": "CYGFM03", "OBJECT_ID": "2016-078H", "EPOCH": "2025-12-03T17:38:56.092416", "MEAN_MOTION": 15.49341165, "ECCENTRICITY": 0.0008332, "INCLINATION": 34.9427, "RA_OF_ASC_NODE": 82.3773, "ARG_OF_PERICENTER": 119.5698, "MEAN_ANOMALY": 240.5855, "EPHEMERIS_TYPE": 0, "CLASSIFICATION_TYPE": "U", "NORAD_CAT_ID": 41891, "ELEMENT_SET_NO": 999, "REV_AT_EPOCH": 49853, "BSTAR": 0.00061976, "MEAN_MOTION_DOT": 0.00035157, "MEAN_MOTION_DDOT": 0}, "tle": {"line1": "1 41891U 16078H   25337.73537144  .00035157  00000+0  61976-3 0  9991", "line2": "2 41891  34.9427  82.3773 0008332 119.5698 240.5855 15.49341165498536"}}, "geometry": {"type": "Point", "coordinates": [119.60406574191042, 25.010133551331798]}}]}